{"fetched_at":"2026-03-30T06:02:59Z","count":15439,"tles":[{"name":"STARLINK-32391","line1":"1 61855U 24202L   26087.80862898  .00001154  00000+0  51422-4 0  9995","line2":"2 61855  43.0016 129.8431 0000802 260.0649 100.0113 15.27591142 78251","category":"Starlink"}]}